ORBCOMM FM24            
1 25478U 98053D   25211.86231094  .00001019  00000+0  37914-3 0  9992
2 25478  45.0087  62.0008 0002777  82.6766 277.4398 14.38181262403739
ORBCOMM FM25            
1 25479U 98053E   25211.90397139  .00001073  00000+0  39687-3 0  9990
2 25479  45.0076  60.0798 0005016  98.9070 261.2346 14.38152827404032
ORBCOMM FM26            
1 25480U 98053F   25211.94421518  .00000768  00000+0  30308-3 0  9996
2 25480  45.0075  56.6633 0006620 117.8490 242.3029 14.37199834403946
ORBCOMM FM27            
1 25481U 98053G   25211.89073357  .00001027  00000+0  38161-3 0  9999
2 25481  45.0060  60.3296 0001327  83.9477 276.1523 14.38183472403963
ORBCOMM FM28            
1 25482U 98053H   25211.71439753  .00000932  00000+0  34937-3 0  9998
2 25482  45.0070 358.6047 0005629 161.7762 198.3289 14.38362276404622
ORBCOMM FM30            
1 25980U 99065A   25212.34619247  .00000514  00000+0  21769-3 0  9998
2 25980  45.0301 240.6862 0008570 240.1709 119.8287 14.37364838341337
ORBCOMM FM31            
1 25981U 99065B   25212.46036968  .00000539  00000+0  22617-3 0  9995
2 25981  45.0212 233.6238 0006297 262.1779  97.8354 14.37301979341341
ORBCOMM FM32            
1 25982U 99065C   25212.18854322  .00000593  00000+0  24869-3 0  9998
2 25982  45.0145 251.7859 0008617 252.9281 107.0623 14.36348478341055
